{"type": "FeatureCollection", "features": [ {"type": "Feature", "properties": {"norad_id": 45358, "name": "COSMOS 2545 (760)", "group": "glo-ops", "lat": -31.04649565715516, "lon": -57.983087300702934, "alt_km": 19126.607953569932, "timestamp": "2025-12-18T23:35:49.321083+00:00", "meta": {"OBJECT_NAME": "COSMOS 2545 (760)", "OBJECT_ID": "2020-018A", "EPOCH": "2025-12-18T13:25:32.437344", "MEAN_MOTION": 2.13102587, "ECCENTRICITY": 0.0011599, "INCLINATION": 64.4659, "RA_OF_ASC_NODE": 318.7651, "ARG_OF_PERICENTER": 249.5065, "MEAN_ANOMALY": 110.3601, "EPHEMERIS_TYPE": 0, "CLASSIFICATION_TYPE": "U", "NORAD_CAT_ID": 45358, "ELEMENT_SET_NO": 999, "REV_AT_EPOCH": 4481, "BSTAR": 0, "MEAN_MOTION_DOT": -6.4e-07, "MEAN_MOTION_DDOT": 0}, "tle": {"line1": "1 45358U 20018A   25352.55940321 -.00000064  00000+0  00000+0 0  9991", "line2": "2 45358  64.4659 318.7651 0011599 249.5065 110.3601  2.13102587 44816"}}, "geometry": {"type": "Point", "coordinates": [-57.983087300702934, -31.04649565715516]}}, {"type": "Feature", "properties": {"norad_id": 46805, "name": "COSMOS 2547 (705K)", "group": "glo-ops", "lat": -0.6630916909549677, "lon": 18.80742563681651, "alt_km": 19120.061198032552, "timestamp": "2025-12-18T23:35:49.321095+00:00", "meta": {"OBJECT_NAME": "COSMOS 2547 (705K)", "OBJECT_ID": "2020-075A", "EPOCH": "2025-12-17T08:09:16.456320", "MEAN_MOTION": 2.1310013, "ECCENTRICITY": 0.0006169, "INCLINATION": 64.5962, "RA_OF_ASC_NODE": 198.5429, "ARG_OF_PERICENTER": 228.3795, "MEAN_ANOMALY": 131.6499, "EPHEMERIS_TYPE": 0, "CLASSIFICATION_TYPE": "U", "NORAD_CAT_ID": 46805, "ELEMENT_SET_NO": 999, "REV_AT_EPOCH": 4003, "BSTAR": 0, "MEAN_MOTION_DOT": 1.12e-06, "MEAN_MOTION_DDOT": 0}, "tle": {"line1": "1 46805U 20075A   25351.33977380  .00000112  00000+0  00000+0 0  9995", "line2": "2 46805  64.5962 198.5429 0006169 228.3795 131.6499  2.13100130 40034"}}, "geometry": {"type": "Point", "coordinates": [18.80742563681651, -0.6630916909549677]}}, {"type": "Feature", "properties": {"norad_id": 52984, "name": "COSMOS 2557 (706K)", "group": "glo-ops", "lat": 46.85025734385065, "lon": -8.446026691455707, "alt_km": 19149.784057036497, "timestamp": "2025-12-18T23:35:49.321107+00:00", "meta": {"OBJECT_NAME": "COSMOS 2557 (706K)", "OBJECT_ID": "2022-075A", "EPOCH": "2025-12-17T23:22:55.877376", "MEAN_MOTION": 2.13101861, "ECCENTRICITY": 0.00136329, "INCLINATION": 64.4068, "RA_OF_ASC_NODE": 320.867, "ARG_OF_PERICENTER": 277.443, "MEAN_ANOMALY": 82.3946, "EPHEMERIS_TYPE": 0, "CLASSIFICATION_TYPE": "U", "NORAD_CAT_ID": 52984, "ELEMENT_SET_NO": 999, "REV_AT_EPOCH": 2685, "BSTAR": 0, "MEAN_MOTION_DOT": -6.7e-07, "MEAN_MOTION_DDOT": 0}, "tle": {"line1": "1 52984U 22075A   25351.97425784 -.00000067  00000+0  00000+0 0  9998", "line2": "2 52984  64.4068 320.8670 0013632 277.4430  82.3946  2.13101861 26852"}}, "geometry": {"type": "Point", "coordinates": [-8.446026691455707, 46.85025734385065]}}, {"type": "Feature", "properties": {"norad_id": 54031, "name": "COSMOS 2559 (707K)", "group": "glo-ops", "lat": -11.500067899705174, "lon": 146.50613520294507, "alt_km": 19102.31622666483, "timestamp": "2025-12-18T23:35:49.321118+00:00", "meta": {"OBJECT_NAME": "COSMOS 2559 (707K)", "OBJECT_ID": "2022-130A", "EPOCH": "2025-12-18T06:18:18.086112", "MEAN_MOTION": 2.1310139, "ECCENTRICITY": 0.00116356, "INCLINATION": 64.3791, "RA_OF_ASC_NODE": 320.9467, "ARG_OF_PERICENTER": 192.0675, "MEAN_ANOMALY": 167.8974, "EPHEMERIS_TYPE": 0, "CLASSIFICATION_TYPE": "U", "NORAD_CAT_ID": 54031, "ELEMENT_SET_NO": 999, "REV_AT_EPOCH": 2483, "BSTAR": 0, "MEAN_MOTION_DOT": -6.5e-07, "MEAN_MOTION_DDOT": 0}, "tle": {"line1": "1 54031U 22130A   25352.26270933 -.00000065  00000+0  00000+0 0  9990", "line2": "2 54031  64.3791 320.9467 0011635 192.0675 167.8974  2.13101390 24831"}}, "geometry": {"type": "Point", "coordinates": [146.50613520294507, -11.500067899705174]}}, {"type": "Feature", "properties": {"norad_id": 54377, "name": "COSMOS 2564 (761)", "group": "glo-ops", "lat": -41.94540968376973, "lon": 173.57649553176026, "alt_km": 19141.847881271886, "timestamp": "2025-12-18T23:35:49.321129+00:00", "meta": {"OBJECT_NAME": "COSMOS 2564 (761)", "OBJECT_ID": "2022-161A", "EPOCH": "2025-12-18T02:33:56.818368", "MEAN_MOTION": 2.13102096, "ECCENTRICITY": 0.00085664, "INCLINATION": 64.7385, "RA_OF_ASC_NODE": 198.7206, "ARG_OF_PERICENTER": 204.1296, "MEAN_ANOMALY": 155.9125, "EPHEMERIS_TYPE": 0, "CLASSIFICATION_TYPE": "U", "NORAD_CAT_ID": 54377, "ELEMENT_SET_NO": 999, "REV_AT_EPOCH": 2377, "BSTAR": 0, "MEAN_MOTION_DOT": 1.11e-06, "MEAN_MOTION_DDOT": 0}, "tle": {"line1": "1 54377U 22161A   25352.10690762  .00000111  00000+0  00000+0 0  9997", "line2": "2 54377  64.7385 198.7206 0008566 204.1296 155.9125  2.13102096 23774"}}, "geometry": {"type": "Point", "coordinates": [173.57649553176026, -41.94540968376973]}}, {"type": "Feature", "properties": {"norad_id": 57517, "name": "COSMOS 2569 (703K)", "group": "glo-ops", "lat": -50.37198399512903, "lon": 44.83576718894163, "alt_km": 19109.086525275172, "timestamp": "2025-12-18T23:35:49.321140+00:00", "meta": {"OBJECT_NAME": "COSMOS 2569 (703K)", "OBJECT_ID": "2023-114A", "EPOCH": "2025-12-18T02:53:08.312640", "MEAN_MOTION": 2.13104042, "ECCENTRICITY": 0.00107503, "INCLINATION": 65.1969, "RA_OF_ASC_NODE": 78.7317, "ARG_OF_PERICENTER": 286.9993, "MEAN_ANOMALY": 72.9048, "EPHEMERIS_TYPE": 0, "CLASSIFICATION_TYPE": "U", "NORAD_CAT_ID": 57517, "ELEMENT_SET_NO": 999, "REV_AT_EPOCH": 1840, "BSTAR": 0, "MEAN_MOTION_DOT": -4.2e-07, "MEAN_MOTION_DDOT": 0}, "tle": {"line1": "1 57517U 23114A   25352.12023510 -.00000042  00000+0  00000+0 0  9992", "line2": "2 57517  65.1969  78.7317 0010750 286.9993  72.9048  2.13104042 18405"}}, "geometry": {"type": "Point", "coordinates": [44.83576718894163, -50.37198399512903]}}, {"type": "Feature", "properties": {"norad_id": 63130, "name": "COSMOS 2584 (704K)", "group": "glo-ops", "lat": 26.058563528728367, "lon": 92.1220733011029, "alt_km": 19146.328016393203, "timestamp": "2025-12-18T23:35:49.321151+00:00", "meta": {"OBJECT_NAME": "COSMOS 2584 (704K)", "OBJECT_ID": "2025-042A", "EPOCH": "2025-12-18T11:25:35.911776", "MEAN_MOTION": 2.13103072, "ECCENTRICITY": 0.00077091, "INCLINATION": 64.979, "RA_OF_ASC_NODE": 78.9506, "ARG_OF_PERICENTER": 218.5301, "MEAN_ANOMALY": 141.4378, "EPHEMERIS_TYPE": 0, "CLASSIFICATION_TYPE": "U", "NORAD_CAT_ID": 63130, "ELEMENT_SET_NO": 999, "REV_AT_EPOCH": 619, "BSTAR": 0, "MEAN_MOTION_DOT": -3.8e-07, "MEAN_MOTION_DDOT": 0}, "tle": {"line1": "1 63130U 25042A   25352.47611009 -.00000038  00000+0  00000+0 0  9991", "line2": "2 63130  64.9790  78.9506 0007709 218.5301 141.4378  2.13103072  6191"}}, "geometry": {"type": "Point", "coordinates": [92.1220733011029, 26.058563528728367]}}, {"type": "Feature", "properties": {"norad_id": 65590, "name": "COSMOS 2596 (708K)", "group": "glo-ops", "lat": 29.134019780559946, "lon": 125.98936744297389, "alt_km": 19160.255016713036, "timestamp": "2025-12-18T23:35:49.321163+00:00", "meta": {"OBJECT_NAME": "COSMOS 2596 (708K)", "OBJECT_ID": "2025-206B", "EPOCH": "2025-12-18T11:34:10.893792", "MEAN_MOTION": 2.13100518, "ECCENTRICITY": 0.001404, "INCLINATION": 64.7412, "RA_OF_ASC_NODE": 321.2751, "ARG_OF_PERICENTER": 306.7014, "MEAN_ANOMALY": 176.2676, "EPHEMERIS_TYPE": 0, "CLASSIFICATION_TYPE": "U", "NORAD_CAT_ID": 65590, "ELEMENT_SET_NO": 999, "REV_AT_EPOCH": 206, "BSTAR": 0, "MEAN_MOTION_DOT": -6.4e-07, "MEAN_MOTION_DDOT": 0}, "tle": {"line1": "1 65590U 25206B   25352.48207053 -.00000064  00000+0  00000+0 0  9995", "line2": "2 65590  64.7412 321.2751 0014040 306.7014 176.2676  2.13100518  2066"}}, "geometry": {"type": "Point", "coordinates": [125.98936744297389, 29.134019780559946]}}]}